{
  "type": "FeatureCollection",
  "features": [
    {
      "type": "Feature",
      "geometry": {
        "type": "Polygon",
        "coordinates": [
          [
            [
              -90.119219,
              41.818305
            ],
            [
              -90.109214,
              41.818305
            ],
            [
              -90.109214,
              41.823964
            ],
            [
              -90.119219,
              41.823964
            ],
            [
              -90.119219,
              41.818305
            ]
          ]
        ]
      },
      "properties": {
        "name": "Site boundary",
        "kind": "boundary",
        "source": "Site closure survey, 1981 (synthetic replica)"
      }
    },
    {
      "type": "Feature",
      "geometry": {
        "type": "Polygon",
        "coordinates": [
          [
            [
              -90.115723,
              41.82082
            ],
            [
              -90.114277,
              41.82082
            ],
            [
              -90.114277,
              41.82118
            ],
            [
              -90.115723,
              41.82118
            ],
            [
              -90.115723,
              41.82082
            ]
          ]
        ]
      },
      "properties": {
        "name": "Disposal trench",
        "kind": "trench",
        "source": "Site closure survey, 1981 (synthetic replica)"
      }
    },
    {
      "type": "Feature",
      "geometry": {
        "type": "LineString",
        "coordinates": [
          [
            -90.123394,
            41.81928
          ],
          [
            -90.122829,
            41.819172
          ],
          [
            -90.122252,
            41.819085
          ],
          [
            -90.121674,
            41.819001
          ],
          [
            -90.121103,
            41.818904
          ],
          [
            -90.120534,
            41.818802
          ],
          [
            -90.119993,
            41.818653
          ],
          [
            -90.119474,
            41.818464
          ],
          [
            -90.11896,
            41.818265
          ],
          [
            -90.118471,
            41.818024
          ],
          [
            -90.118006,
            41.817739
          ],
          [
            -90.117544,
            41.817451
          ],
          [
            -90.117078,
            41.817169
          ],
          [
            -90.116613,
            41.816884
          ],
          [
            -90.116157,
            41.816583
          ],
          [
            -90.115683,
            41.816316
          ],
          [
            -90.115197,
            41.816068
          ],
          [
            -90.114697,
            41.815845
          ],
          [
            -90.114189,
            41.815638
          ],
          [
            -90.113635,
            41.815511
          ],
          [
            -90.113078,
            41.815389
          ],
          [
            -90.112483,
            41.815334
          ],
          [
            -90.111882,
            41.815289
          ],
          [
            -90.111272,
            41.815261
          ],
          [
            -90.110688,
            41.815186
          ],
          [
            -90.110084,
            41.815147
          ],
          [
            -90.109494,
            41.815083
          ],
          [
            -90.108913,
            41.815003
          ],
          [
            -90.108357,
            41.81488
          ],
          [
            -90.107792,
            41.814771
          ],
          [
            -90.107264,
            41.814598
          ],
          [
            -90.106757,
            41.814388
          ],
          [
            -90.106254,
            41.814171
          ],
          [
            -90.105767,
            41.813925
          ],
          [
            -90.105293,
            41.813656
          ],
          [
            -90.104816,
            41.813395
          ],
          [
            -90.104353,
            41.813107
          ],
          [
            -90.103897,
            41.812807
          ],
          [
            -90.103418,
            41.812548
          ],
          [
            -90.102933,
            41.812298
          ],
          [
            -90.10245,
            41.812046
          ],
          [
            -90.101928,
            41.811862
          ],
          [
            -90.101382,
            41.81172
          ],
          [
            -90.100842,
            41.811569
          ],
          [
            -90.100266,
            41.81148
          ],
          [
            -90.099672,
            41.811423
          ],
          [
            -90.099084,
            41.811356
          ],
          [
            -90.09848,
            41.811318
          ],
          [
            -90.097862,
            41.811303
          ],
          [
            -90.09728,
            41.811224
          ],
          [
            -90.096693,
            41.811156
          ],
          [
            -90.096108,
            41.811083
          ],
          [
            -90.095564,
            41.810937
          ],
          [
            -90.095023,
            41.810788
          ],
          [
            -90.09449,
            41.810622
          ],
          [
            -90.09398,
            41.810418
          ],
          [
            -90.093484,
            41.810189
          ],
          [
            -90.093011,
            41.809919
          ],
          [
            -90.092534,
            41.809655
          ],
          [
            -90.092043,
            41.809417
          ]
        ]
      },
      "properties": {
        "name": "Coal Creek",
        "kind": "creek",
        "flow": "to the southeast",
        "source": "State hydrology atlas (synthetic replica)"
      }
    },
    {
      "type": "Feature",
      "geometry": {
        "type": "LineString",
        "coordinates": [
          [
            -90.123022,
            41.819935
          ],
          [
            -90.12246,
            41.819822
          ],
          [
            -90.121887,
            41.819728
          ],
          [
            -90.121313,
            41.819636
          ],
          [
            -90.120746,
            41.819533
          ],
          [
            -90.12018,
            41.819425
          ],
          [
            -90.11964,
            41.819275
          ],
          [
            -90.11912,
            41.819087
          ],
          [
            -90.118605,
            41.818892
          ],
          [
            -90.118112,
            41.818656
          ],
          [
            -90.117641,
            41.818383
          ],
          [
            -90.117173,
            41.818105
          ],
          [
            -90.116701,
            41.817833
          ],
          [
            -90.11623,
            41.817558
          ],
          [
            -90.115768,
            41.81727
          ],
          [
            -90.115288,
            41.817011
          ],
          [
            -90.114799,
            41.81677
          ],
          [
            -90.114296,
            41.816553
          ],
          [
            -90.113786,
            41.816349
          ],
          [
            -90.113233,
            41.816218
          ],
          [
            -90.112678,
            41.816092
          ],
          [
            -90.112089,
            41.816027
          ],
          [
            -90.111494,
            41.815972
          ],
          [
            -90.110891,
            41.815931
          ],
          [
            -90.110312,
            41.815848
          ],
          [
            -90.109714,
            41.815797
          ],
          [
            -90.10913,
            41.815724
          ],
          [
            -90.108554,
            41.815636
          ],
          [
            -90.107999,
            41.815509
          ],
          [
            -90.107438,
            41.815395
          ],
          [
            -90.106909,
            41.815223
          ],
          [
            -90.1064,
            41.815017
          ],
          [
            -90.105895,
            41.814804
          ],
          [
            -90.105404,
            41.814565
          ],
          [
            -90.104925,
            41.814305
          ],
          [
            -90.104443,
            41.814052
          ],
          [
            -90.103973,
            41.813775
          ],
          [
            -90.103511,
            41.813487
          ],
          [
            -90.103027,
            41.813236
          ],
          [
            -90.102538,
            41.812993
          ],
          [
            -90.102051,
            41.812749
          ],
          [
            -90.101529,
            41.812566
          ],
          [
            -90.100984,
            41.812422
          ],
          [
            -90.100444,
            41.81227
          ],
          [
            -90.099872,
            41.812174
          ],
          [
            -90.099284,
            41.812106
          ],
          [
            -90.098701,
            41.812031
          ],
          [
            -90.098103,
            41.811981
          ],
          [
            -90.097493,
            41.811952
          ],
          [
            -90.096916,
            41.811865
          ],
          [
            -90.096333,
            41.811789
          ],
          [
            -90.095753,
            41.811707
          ],
          [
            -90.095211,
            41.811559
          ],
          [
            -90.09467,
            41.811409
          ],
          [
            -90.094138,
            41.811243
          ],
          [
            -90.093626,
            41.811042
          ],
          [
            -90.093127,
            41.810818
          ],
          [
            -90.092649,
            41.810557
          ],
          [
            -90.092167,
            41.810302
          ],
          [
            -90.091672,
            41.810071
          ]
        ]
      },
      "properties": {
        "name": "670 ft contour",
        "kind": "contour",
        "elev_ft": 670,
        "source": "USGS 7.5-minute topographic sheet (synthetic replica)"
      }
    },
    {
      "type": "Feature",
      "geometry": {
        "type": "LineString",
        "coordinates": [
          [
            -90.122372,
            41.821082
          ],
          [
            -90.121815,
            41.820959
          ],
          [
            -90.121249,
            41.820852
          ],
          [
            -90.120682,
            41.820748
          ],
          [
            -90.120121,
            41.820633
          ],
          [
            -90.119561,
            41.820516
          ],
          [
            -90.119022,
            41.820362
          ],
          [
            -90.118501,
            41.820178
          ],
          [
            -90.117983,
            41.819987
          ],
          [
            -90.117483,
            41.819764
          ],
          [
            -90.117002,
            41.819508
          ],
          [
            -90.116523,
            41.819249
          ],
          [
            -90.116041,
            41.818995
          ],
          [
            -90.11556,
            41.818739
          ],
          [
            -90.115086,
            41.818471
          ],
          [
            -90.114597,
            41.818228
          ],
          [
            -90.114101,
            41.818
          ],
          [
            -90.113593,
            41.81779
          ],
          [
            -90.113079,
            41.817593
          ],
          [
            -90.112531,
            41.817456
          ],
          [
            -90.11198,
            41.817323
          ],
          [
            -90.111401,
            41.81724
          ],
          [
            -90.110817,
            41.817165
          ],
          [
            -90.110226,
            41.817103
          ],
          [
            -90.109655,
            41.817006
          ],
          [
            -90.109068,
            41.816935
          ],
          [
            -90.108493,
            41.816846
          ],
          [
            -90.107924,
            41.816744
          ],
          [
            -90.107374,
            41.81661
          ],
          [
            -90.106818,
            41.816488
          ],
          [
            -90.106289,
            41.816316
          ],
          [
            -90.105776,
            41.816116
          ],
          [
            -90.105266,
            41.815911
          ],
          [
            -90.104768,
            41.815685
          ],
          [
            -90.104281,
            41.815441
          ],
          [
            -90.10379,
            41.815202
          ],
          [
            -90.10331,
            41.814944
          ],
          [
            -90.102836,
            41.814676
          ],
          [
            -90.102344,
            41.814439
          ],
          [
            -90.101848,
            41.81421
          ],
          [
            -90.101353,
            41.813978
          ],
          [
            -90.100829,
            41.813798
          ],
          [
            -90.100287,
            41.81365
          ],
          [
            -90.099748,
            41.813495
          ],
          [
            -90.099184,
            41.813387
          ],
          [
            -90.098605,
            41.813303
          ],
          [
            -90.098031,
            41.813211
          ],
          [
            -90.097444,
            41.813141
          ],
          [
            -90.096848,
            41.813089
          ],
          [
            -90.096279,
            41.812988
          ],
          [
            -90.095705,
            41.812896
          ],
          [
            -90.095133,
            41.8128
          ],
          [
            -90.094592,
            41.812649
          ],
          [
            -90.094053,
            41.812495
          ],
          [
            -90.093521,
            41.812329
          ],
          [
            -90.093006,
            41.812134
          ],
          [
            -90.092501,
            41.81192
          ],
          [
            -90.092014,
            41.811675
          ],
          [
            -90.091524,
            41.811435
          ],
          [
            -90.091023,
            41.811214
          ]
        ]
      },
      "properties": {
        "name": "680 ft contour",
        "kind": "contour",
        "elev_ft": 680,
        "source": "USGS 7.5-minute topographic sheet (synthetic replica)"
      }
    },
    {
      "type": "Feature",
      "geometry": {
        "type": "LineString",
        "coordinates": [
          [
            -90.121628,
            41.822392
          ],
          [
            -90.121077,
            41.822258
          ],
          [
            -90.12052,
            41.822138
          ],
          [
            -90.119961,
            41.822018
          ],
          [
            -90.119407,
            41.821891
          ],
          [
            -90.118854,
            41.821762
          ],
          [
            -90.118317,
            41.821605
          ],
          [
            -90.117793,
            41.821425
          ],
          [
            -90.117272,
            41.82124
          ],
          [
            -90.116765,
            41.821029
          ],
          [
            -90.116272,
            41.820794
          ],
          [
            -90.115781,
            41.820557
          ],
          [
            -90.115287,
            41.820323
          ],
          [
            -90.114794,
            41.820088
          ],
          [
            -90.114307,
            41.819843
          ],
          [
            -90.113808,
            41.819618
          ],
          [
            -90.113303,
            41.819404
          ],
          [
            -90.11279,
            41.819205
          ],
          [
            -90.112272,
            41.819014
          ],
          [
            -90.111728,
            41.81887
          ],
          [
            -90.111181,
            41.818729
          ],
          [
            -90.110614,
            41.818626
          ],
          [
            -90.110042,
            41.81853
          ],
          [
            -90.109465,
            41.818443
          ],
          [
            -90.108904,
            41.818329
          ],
          [
            -90.10833,
            41.818236
          ],
          [
            -90.107765,
            41.818128
          ],
          [
            -90.107205,
            41.818011
          ],
          [
            -90.10666,
            41.817869
          ],
          [
            -90.106109,
            41.817736
          ],
          [
            -90.10558,
            41.817565
          ],
          [
            -90.105062,
            41.817373
          ],
          [
            -90.104547,
            41.817177
          ],
          [
            -90.104042,
            41.816964
          ],
          [
            -90.103544,
            41.816738
          ],
          [
            -90.103044,
            41.816516
          ],
          [
            -90.102552,
            41.816279
          ],
          [
            -90.102064,
            41.816035
          ],
          [
            -90.101563,
            41.815815
          ],
          [
            -90.101059,
            41.8156
          ],
          [
            -90.100555,
            41.815383
          ],
          [
            -90.10003,
            41.815206
          ],
          [
            -90.09949,
            41.815054
          ],
          [
            -90.098953,
            41.814896
          ],
          [
            -90.098396,
            41.814773
          ],
          [
            -90.097829,
            41.81467
          ],
          [
            -90.097265,
            41.81456
          ],
          [
            -90.096691,
            41.814467
          ],
          [
            -90.09611,
            41.814388
          ],
          [
            -90.09555,
            41.814272
          ],
          [
            -90.094986,
            41.814162
          ],
          [
            -90.094424,
            41.814049
          ],
          [
            -90.093886,
            41.813894
          ],
          [
            -90.093348,
            41.813737
          ],
          [
            -90.092817,
            41.813571
          ],
          [
            -90.092297,
            41.813382
          ],
          [
            -90.091786,
            41.813179
          ],
          [
            -90.091289,
            41.812952
          ],
          [
            -90.090789,
            41.812729
          ],
          [
            -90.090281,
            41.812521
          ]
        ]
      },
      "properties": {
        "name": "690 ft contour",
        "kind": "contour",
        "elev_ft": 690,
        "source": "USGS 7.5-minute topographic sheet (synthetic replica)"
      }
    },
    {
      "type": "Feature",
      "geometry": {
        "type": "LineString",
        "coordinates": [
          [
            -90.120791,
            41.823865
          ],
          [
            -90.120247,
            41.82372
          ],
          [
            -90.119699,
            41.823583
          ],
          [
            -90.11915,
            41.823447
          ],
          [
            -90.118603,
            41.823306
          ],
          [
            -90.118058,
            41.823164
          ],
          [
            -90.117523,
            41.823003
          ],
          [
            -90.116996,
            41.822828
          ],
          [
            -90.116472,
            41.822648
          ],
          [
            -90.115957,
            41.822453
          ],
          [
            -90.11545,
            41.822241
          ],
          [
            -90.114945,
            41.822028
          ],
          [
            -90.114439,
            41.821817
          ],
          [
            -90.113933,
            41.821605
          ],
          [
            -90.11343,
            41.821388
          ],
          [
            -90.11292,
            41.821182
          ],
          [
            -90.112406,
            41.820985
          ],
          [
            -90.111887,
            41.820796
          ],
          [
            -90.111364,
            41.820614
          ],
          [
            -90.110824,
            41.820461
          ],
          [
            -90.110283,
            41.820311
          ],
          [
            -90.109728,
            41.820186
          ],
          [
            -90.109171,
            41.820065
          ],
          [
            -90.108609,
            41.81995
          ],
          [
            -90.108058,
            41.819818
          ],
          [
            -90.1075,
            41.819699
          ],
          [
            -90.106946,
            41.81957
          ],
          [
            -90.106396,
            41.819436
          ],
          [
            -90.105856,
            41.819285
          ],
          [
            -90.105312,
            41.81914
          ],
          [
            -90.104782,
            41.81897
          ],
          [
            -90.10426,
            41.818787
          ],
          [
            -90.103739,
            41.818601
          ],
          [
            -90.103225,
            41.818403
          ],
          [
            -90.102715,
            41.818198
          ],
          [
            -90.102204,
            41.817995
          ],
          [
            -90.101699,
            41.817782
          ],
          [
            -90.101196,
            41.817564
          ],
          [
            -90.100685,
            41.817362
          ],
          [
            -90.100171,
            41.817164
          ],
          [
            -90.099658,
            41.816964
          ],
          [
            -90.09913,
            41.81679
          ],
          [
            -90.098594,
            41.816633
          ],
          [
            -90.098059,
            41.816471
          ],
          [
            -90.097511,
            41.816333
          ],
          [
            -90.096956,
            41.816208
          ],
          [
            -90.096403,
            41.816078
          ],
          [
            -90.095844,
            41.815959
          ],
          [
            -90.09528,
            41.81585
          ],
          [
            -90.09473,
            41.815715
          ],
          [
            -90.094178,
            41.815586
          ],
          [
            -90.093626,
            41.815454
          ],
          [
            -90.09309,
            41.815294
          ],
          [
            -90.092555,
            41.815134
          ],
          [
            -90.092024,
            41.814967
          ],
          [
            -90.0915,
            41.814786
          ],
          [
            -90.090982,
            41.814595
          ],
          [
            -90.090473,
            41.814389
          ],
          [
            -90.089963,
            41.814185
          ],
          [
            -90.089447,
            41.813991
          ]
        ]
      },
      "properties": {
        "name": "700 ft contour",
        "kind": "contour",
        "elev_ft": 700,
        "source": "USGS 7.5-minute topographic sheet (synthetic replica)"
      }
    },
    {
      "type": "Feature",
      "geometry": {
        "type": "LineString",
        "coordinates": [
          [
            -90.119857,
            41.82551
          ],
          [
            -90.119318,
            41.825358
          ],
          [
            -90.118775,
            41.82521
          ],
          [
            -90.118232,
            41.825064
          ],
          [
            -90.117691,
            41.824914
          ],
          [
            -90.11715,
            41.824763
          ],
          [
            -90.116617,
            41.8246
          ],
          [
            -90.116089,
            41.824427
          ],
          [
            -90.115562,
            41.824252
          ],
          [
            -90.115041,
            41.824066
          ],
          [
            -90.114526,
            41.823869
          ],
          [
            -90.114012,
            41.823671
          ],
          [
            -90.113497,
            41.823475
          ],
          [
            -90.112983,
            41.823278
          ],
          [
            -90.112471,
            41.823077
          ],
          [
            -90.111954,
            41.822885
          ],
          [
            -90.111434,
            41.822697
          ],
          [
            -90.11091,
            41.822516
          ],
          [
            -90.110385,
            41.822339
          ],
          [
            -90.109848,
            41.822181
          ],
          [
            -90.10931,
            41.822025
          ],
          [
            -90.108763,
            41.821886
          ],
          [
            -90.108215,
            41.821749
          ],
          [
            -90.107664,
            41.821616
          ],
          [
            -90.107119,
            41.821472
          ],
          [
            -90.10657,
            41.821337
          ],
          [
            -90.106024,
            41.821195
          ],
          [
            -90.10548,
            41.821049
          ],
          [
            -90.104943,
            41.820893
          ],
          [
            -90.104403,
            41.82074
          ],
          [
            -90.103873,
            41.820571
          ],
          [
            -90.103348,
            41.820393
          ],
          [
            -90.102824,
            41.820213
          ],
          [
            -90.102303,
            41.820026
          ],
          [
            -90.101787,
            41.819833
          ],
          [
            -90.101269,
            41.819642
          ],
          [
            -90.100755,
            41.819445
          ],
          [
            -90.100242,
            41.819244
          ],
          [
            -90.099724,
            41.819054
          ],
          [
            -90.099205,
            41.818866
          ],
          [
            -90.098685,
            41.818677
          ],
          [
            -90.098157,
            41.818506
          ],
          [
            -90.097622,
            41.818345
          ],
          [
            -90.097088,
            41.818181
          ],
          [
            -90.096546,
            41.818033
          ],
          [
            -90.095999,
            41.817893
          ],
          [
            -90.095454,
            41.817751
          ],
          [
            -90.094904,
            41.817616
          ],
          [
            -90.094351,
            41.817487
          ],
          [
            -90.093807,
            41.817341
          ],
          [
            -90.093262,
            41.817199
          ],
          [
            -90.092717,
            41.817055
          ],
          [
            -90.092183,
            41.816893
          ],
          [
            -90.091649,
            41.81673
          ],
          [
            -90.091118,
            41.816563
          ],
          [
            -90.090592,
            41.816386
          ],
          [
            -90.090069,
            41.816203
          ],
          [
            -90.089553,
            41.81601
          ],
          [
            -90.089035,
            41.815818
          ],
          [
            -90.088514,
            41.815633
          ]
        ]
      },
      "properties": {
        "name": "710 ft contour",
        "kind": "contour",
        "elev_ft": 710,
        "source": "USGS 7.5-minute topographic sheet (synthetic replica)"
      }
    },
    {
      "type": "Feature",
      "geometry": {
        "type": "Polygon",
        "coordinates": [
          [
            [
              -90.095121,
              41.810188
            ],
            [
              -90.090902,
              41.810188
            ],
            [
              -90.090902,
              41.812344
            ],
            [
              -90.095121,
              41.812344
            ],
            [
              -90.095121,
              41.810188
            ]
          ]
        ]
      },
      "properties": {
        "name": "Delmar (pop. ~1,900)",
        "kind": "town",
        "source": "State hydrology atlas (synthetic replica)"
      }
    }
  ]
}